      2.10          N: GNSS NAV DATA                        RINEX VERSION / TYPE
fic2rin                                 03/21/2023 00:17:26 PGM / RUN BY / DATE
                                                            END OF HEADER
8  23  3 20  1 59 44.0 -.113753136247D-03 -.181898940355D-11  .000000000000D+00
     .110000000000D+02 -.402187500000D+02  .455233248006D-08 -.403315505995D+00
    -.200979411602D-05  .842577021103D-02  .114142894745D-04  .515367064095D+04
     .935840000000D+05  .128522515297D-06  .243225843150D+01 -.204890966415D-07
     .959622032361D+00  .156906250000D+03  .237805041900D+00 -.812105256015D-08
    -.559309011751D-09  .100000000000D+01  .225400000000D+04  .000000000000D+00
     .240000000000D+01  .000000000000D+00  .512227416039D-08  .110000000000D+02
     .864000000000D+05  .400000000000D+01
7  23  3 20  1 59 44.0  .219563487917D-03 -.784439180279D-11  .000000000000D+00
     .110000000000D+02  .381562500000D+02  .442089843388D-08  .307506673335D+01
     .184588134289D-05  .169181840029D-01  .117849558592D-04  .515376654434D+04
     .935840000000D+05  .651925802231D-07  .366128617035D+00 -.223517417908D-06
     .950857420971D+00  .144968750000D+03 -.221363837817D+01 -.767210528827D-08
     .621097299767D-09  .100000000000D+01  .225400000000D+04  .000000000000D+00
     .240000000000D+01  .000000000000D+00 -.111758708954D-07  .110000000000D+02
     .864000000000D+05  .400000000000D+01
16 23  3 20 18  0  0.0 -.514260958880D-03  .227373675443D-11  .000000000000D+00
     .270000000000D+02 -.662500000000D+01  .507413992972D-08  .255467036345D+01
    -.553205609322D-06  .134118967690D-01  .325590372086D-05  .515356033134D+04
     .151200000000D+06 -.912696123123D-07  .149869802578D+01 -.203028321266D-06
     .965375670149D+00  .320500000000D+03  .780778189106D+00 -.827784480546D-08
    -.585738684082D-10  .100000000000D+01  .225400000000D+04  .000000000000D+00
     .240000000000D+01  .000000000000D+00 -.102445483208D-07  .270000000000D+02
     .144000000000D+06  .400000000000D+01
8  23  3 20 18  0  0.0 -.113861169666D-03 -.181898940355D-11  .000000000000D+00
     .860000000000D+02 -.565625000000D+02  .467269463649D-08  .171677625814D+01
    -.267662107944D-05  .842781073879D-02  .106394290924D-04  .515367104149D+04
     .151200000000D+06  .558793544769D-08  .243179636736D+01  .216066837311D-06
     .959584869853D+00  .176125000000D+03  .238311703096D+00 -.812962434577D-08
    -.762888920243D-09  .100000000000D+01  .225400000000D+04  .000000000000D+00
     .240000000000D+01  .000000000000D+00  .512227416039D-08  .860000000000D+02
     .144000000000D+06  .400000000000D+01
9  23  3 20 18  0  0.0 -.196794979274D-03  .750333128963D-11  .000000000000D+00
     .580000000000D+02 -.126718750000D+03  .448375819510D-08  .206646052465D+01
    -.648573040962D-05  .240445602685D-02  .965222716331D-05  .515365646744D+04
     .151200000000D+06  .707805156708D-07 -.705607180811D+00  .800937414169D-07
     .955899593421D+00  .189687500000D+03  .197256480424D+01 -.812319550656D-08
    -.422517599554D-09  .100000000000D+01  .225400000000D+04  .000000000000D+00
     .240000000000D+01  .000000000000D+00  .139698386192D-08  .580000000000D+02
     .144000000000D+06  .400000000000D+01
25 23  3 20 18  0  0.0  .429227948189D-03  .295585778076D-11  .000000000000D+00
     .250000000000D+02  .194375000000D+02  .537129516457D-08 -.201304101330D+01
     .102818012238D-05  .111901113996D-01  .281631946564D-05  .515375316811D+04
     .151200000000D+06  .171363353729D-06  .139878350636D+01  .242143869400D-07
     .953341196933D+00  .319781250000D+03  .104177931712D+01 -.853785563596D-08
     .279654505876D-09  .100000000000D+01  .225400000000D+04  .000000000000D+00
     .240000000000D+01  .000000000000D+00  .558793544769D-08  .250000000000D+02
     .144000000000D+06  .400000000000D+01
24 23  3 20 18  0  0.0 -.119474250823D-03 -.152340362547D-10  .000000000000D+00
     .570000000000D+02  .264687500000D+02  .509021202776D-08 -.210834951905D+00
     .151991844177D-05  .137474698713D-01  .125356018543D-04  .515366432571D+04
     .151200000000D+06  .409781932831D-07  .276190461607D+00  .141561031342D-06
     .934498823776D+00  .129718750000D+03  .887961891406D+00 -.847178145513D-08
     .481448625696D-09  .100000000000D+01  .225400000000D+04  .000000000000D+00
     .240000000000D+01  .000000000000D+00  .232830643654D-08  .570000000000D+02
     .144000000000D+06  .400000000000D+01
30 23  3 20 18  0  0.0 -.526098068804D-03  .159161572810D-11  .000000000000D+00
     .410000000000D+02  .486562500000D+02  .493734851753D-08 -.124344537877D+01
     .246614217758D-05  .627239921596D-02  .120066106319D-04  .515362767410D+04
     .151200000000D+06  .162050127983D-06  .372790229558D+00 -.279396772385D-07
     .936010686705D+00  .129500000000D+03 -.263090459427D+01 -.820105589261D-08
     .689671584733D-09  .100000000000D+01  .225400000000D+04  .000000000000D+00
     .240000000000D+01  .000000000000D+00  .372529029846D-08  .410000000000D+02
     .144000000000D+06  .400000000000D+01
23 23  3 20 18  0  0.0  .117183662951D-04  .216004991671D-11  .000000000000D+00
     .139000000000D+03  .227500000000D+02  .456661878943D-08 -.140467368122D+01
     .119768083096D-05  .303412473295D-02  .202283263206D-05  .515364704132D+04
     .151200000000D+06 -.260770320892D-07 -.176058798040D+01 -.782310962677D-07
     .972471053974D+00  .348656250000D+03 -.308798484566D+01 -.840892169391D-08
     .153577825704D-09  .100000000000D+01  .225400000000D+04  .000000000000D+00
     .240000000000D+01  .000000000000D+00 -.838190317154D-08  .139000000000D+03
     .144000000000D+06  .400000000000D+01
27 23  3 20 18  0  0.0  .768303871155D-04 -.841282599140D-11  .000000000000D+00
     .720000000000D+02 -.585937500000D+02  .439554023475D-08  .173198002781D+01
    -.303611159325D-05  .114965870744D-01  .111386179924D-04  .515366565323D+04
     .151200000000D+06 -.271946191788D-06  .245456076683D+01  .782310962677D-07
     .968472186422D+00  .173562500000D+03  .712258157920D+00 -.799283293357D-08
    -.690028742467D-09  .100000000000D+01  .225400000000D+04  .000000000000D+00
     .340000000000D+01  .000000000000D+00  .186264514923D-08  .720000000000D+02
     .144000000000D+06  .400000000000D+01
21 23  3 20 18  0  0.0  .154333654791D-03  .000000000000D+00  .000000000000D+00
     .710000000000D+02  .958437500000D+02  .419838916547D-08  .165973785173D+01
     .512599945068D-05  .248271697201D-01  .111404806376D-04  .515364562035D+04
     .151200000000D+06  .391155481339D-06 -.286386424084D+01  .251457095146D-06
     .961869348096D+00  .153312500000D+03 -.791915267410D+00 -.768782022857D-08
    -.267868300647D-10  .100000000000D+01  .225400000000D+04  .000000000000D+00
     .340000000000D+01  .000000000000D+00 -.102445483208D-07  .710000000000D+02
     .144000000000D+06  .400000000000D+01
26 23  3 20 18  0  0.0  .241980887949D-03  .000000000000D+00  .000000000000D+00
     .850000000000D+02  .255937500000D+02  .583202864169D-08 -.276856041057D+01
     .120326876640D-05  .788281636778D-02  .293366611004D-05  .515365075493D+04
     .151200000000D+06 -.763684511185D-07  .134432700699D+01 -.204890966415D-06
     .934159053737D+00  .310656250000D+03  .461412642317D+00 -.881000982941D-08
     .162506769059D-09  .100000000000D+01  .225400000000D+04  .000000000000D+00
     .240000000000D+01  .000000000000D+00  .698491930962D-08  .850000000000D+02
     .144000000000D+06  .400000000000D+01
13 23  3 20 18  0  0.0  .493449158967D-03  .579802872380D-11  .000000000000D+00
     .116000000000D+03 -.118375000000D+03  .412660046090D-08  .128308308853D+01
    -.615045428276D-05  .680725474376D-02  .109784305096D-04  .515367779922D+04
     .151200000000D+06 -.745058059692D-07 -.546436285379D+00 -.167638063431D-07
     .969871925459D+00  .172250000000D+03  .923699574218D+00 -.802926302246D-08
    -.370729728096D-09  .100000000000D+01  .225400000000D+04  .000000000000D+00
     .340000000000D+01  .000000000000D+00 -.111758708954D-07  .116000000000D+03
     .144000000000D+06  .400000000000D+01
19 23  3 20 18  0  0.0  .292633194476D-03  .511590769747D-11  .000000000000D+00
     .840000000000D+02 -.525000000000D+02  .409909931537D-08 -.245011371970D+01
    -.263005495071D-05  .918780104257D-02  .123344361782D-04  .515361266518D+04
     .151200000000D+06 -.204890966415D-07  .256434048602D+01  .115483999252D-06
     .974240197380D+00  .147156250000D+03  .225700372755D+01 -.769782064513D-08
    -.694671793011D-09  .100000000000D+01  .225400000000D+04  .000000000000D+00
     .240000000000D+01  .000000000000D+00 -.153668224812D-07  .840000000000D+02
     .144000000000D+06  .400000000000D+01
17 23  3 20 18  0  0.0  .706491060555D-03  .193267624127D-11  .000000000000D+00
     .830000000000D+02 -.646875000000D+02  .413445793105D-08  .167476214036D+01
    -.358745455742D-05  .135614048922D-01  .115446746349D-04  .515373331261D+04
     .151200000000D+06  .227242708206D-06  .251975921326D+01 -.298023223877D-06
     .975182749647D+00  .160187500000D+03 -.141454355355D+01 -.775032283206D-08
    -.737887878849D-09  .100000000000D+01  .225400000000D+04  .000000000000D+00
     .240000000000D+01  .000000000000D+00 -.111758708954D-07  .830000000000D+02
     .144000000000D+06  .400000000000D+01
14 23  3 20 18  0  0.0  .133924186230D-05  .104591890704D-10  .000000000000D+00
     .110000000000D+02  .107500000000D+02  .552808740989D-08 -.183323354590D+01
     .517815351486D-06  .282479159068D-02  .332482159138D-05  .515365930367D+04
     .151200000000D+06  .149011611938D-07  .144273560878D+01 -.558793544769D-07
     .949024655258D+00  .309968750000D+03 -.307823449520D+01 -.871357724118D-08
     .111790370803D-09  .100000000000D+01  .225400000000D+04  .000000000000D+00
     .240000000000D+01  .000000000000D+00 -.791624188423D-08  .523000000000D+03
     .144000000000D+06  .400000000000D+01
